{
    "links": {
        "self": "http://www.neowsapp.com/rest/v1/neo/3856715?api_key=iIulBulltgU6a56xZRHN4H3l9WmuAYTsLGpBGhQ2"
    },
    "id": "3856715",
    "neo_reference_id": "3856715",
    "name": "(2019 SO4)",
    "designation": "2019 SO4",
    "nasa_jpl_url": "http://ssd.jpl.nasa.gov/sbdb.cgi?sstr=3856715",
    "absolute_magnitude_h": 27.3,
    "estimated_diameter": {
        "kilometers": {
            "estimated_diameter_min": 0.0092162655,
            "estimated_diameter_max": 0.0206081961
        },
        "meters": {
            "estimated_diameter_min": 9.216265485,
            "estimated_diameter_max": 20.6081961232
        },
        "miles": {
            "estimated_diameter_min": 0.0057267201,
            "estimated_diameter_max": 0.0128053354
        },
        "feet": {
            "estimated_diameter_min": 30.2370924539,
            "estimated_diameter_max": 67.6121941689
        }
    },
    "is_potentially_hazardous_asteroid": false,
    "close_approach_data": [
        {
            "close_approach_date": "2019-09-19",
            "close_approach_date_full": "2019-Sep-19 13:02",
            "epoch_date_close_approach": 1568898120000,
            "relative_velocity": {
                "kilometers_per_second": "8.4645215915",
                "kilometers_per_hour": "30472.2777295139",
                "miles_per_hour": "18934.2883480971"
            },
            "miss_distance": {
                "astronomical": "0.0272851885",
                "lunar": "10.6139383265",
                "kilometers": "4081806.082148495",
                "miles": "2536316.688879431"
            },
            "orbiting_body": "Earth"
        }
    ],
    "orbital_data": {
        "orbit_id": "1",
        "orbit_determination_date": "2019-09-26 23:42:03",
        "first_observation_date": "2019-09-26",
        "last_observation_date": "2019-09-27",
        "data_arc_in_days": 1,
        "observations_used": 11,
        "orbit_uncertainty": "9",
        "minimum_orbit_intersection": ".0141724",
        "jupiter_tisserand_invariant": "3.522",
        "epoch_osculation": "2458752.5",
        "eccentricity": ".5302451910459336",
        "semi_major_axis": "2.135361250130129",
        "inclination": "2.604993090550952",
        "ascending_node_longitude": "184.4770630288019",
        "orbital_period": "1139.739140753043",
        "perihelion_distance": "1.003096216102795",
        "perihelion_argument": "150.2423808206652",
        "aphelion_distance": "3.267626284157462",
        "perihelion_time": "2458728.983893780436",
        "mean_anomaly": "7.42783847315234",
        "mean_motion": ".3158617504020636",
        "equinox": "J2000",
        "orbit_class": {
            "orbit_class_type": "APO",
            "orbit_class_description": "Near-Earth asteroid orbits which cross the Earth’s orbit similar to that of 1862 Apollo",
            "orbit_class_range": "a (semi-major axis) > 1.0 AU; q (perihelion) < 1.017 AU"
        }
    },
    "is_sentry_object": false
}